[{"OBJECT_NAME":"CALSPHERE 1","OBJECT_ID":"1964-063C","EPOCH":"2026-04-25T19:48:31.007232","MEAN_MOTION":13.76559824,"ECCENTRICITY":0.0028347,"INCLINATION":90.2214,"RA_OF_ASC_NODE":70.5377,"ARG_OF_PERICENTER":89.2942,"MEAN_ANOMALY":302.6497,"EPHEMERIS_TYPE":0,"CLASSIFICATION_TYPE":"U","NORAD_CAT_ID":900,"ELEMENT_SET_NO":999,"REV_AT_EPOCH":6422,"BSTAR":0.00063983,"MEAN_MOTION_DOT":6.38e-6,"MEAN_MOTION_DDOT":0},{"OBJECT_NAME":"CALSPHERE 2","OBJECT_ID":"1964-063E","EPOCH":"2026-04-25T21:20:25.164096","MEAN_MOTION":13.52896128,"ECCENTRICITY":0.0019469,"INCLINATION":90.2342,"RA_OF_ASC_NODE":74.5393,"ARG_OF_PERICENTER":25.068,"MEAN_ANOMALY":33.4619,"EPHEMERIS_TYPE":0,"CLASSIFICATION_TYPE":"U","NORAD_CAT_ID":902,"ELEMENT_SET_NO":999,"REV_AT_EPOCH":84919,"BSTAR":0.00011069,"MEAN_MOTION_DOT":8.2e-7,"MEAN_MOTION_DDOT":0},{"OBJECT_NAME":"LCS 1","OBJECT_ID":"1965-034C","EPOCH":"2026-04-25T18:20:29.440032","MEAN_MOTION":9.89310186,"ECCENTRICITY":0.0013223,"INCLINATION":32.144,"RA_OF_ASC_NODE":301.5005,"ARG_OF_PERICENTER":295.5609,"MEAN_ANOMALY":64.3521,"EPHEMERIS_TYPE":0,"CLASSIFICATION_TYPE":"U","NORAD_CAT_ID":1361,"ELEMENT_SET_NO":999,"REV_AT_EPOCH":20469,"BSTAR":0.0015325,"MEAN_MOTION_DOT":2.0e-7,"MEAN_MOTION_DDOT":0},{"OBJECT_NAME":"TEMPSAT 1","OBJECT_ID":"1965-065E","EPOCH":"2026-04-25T12:45:11.193120","MEAN_MOTION":13.33591523,"ECCENTRICITY":0.0070684,"INCLINATION":90.0009,"RA_OF_ASC_NODE":212.5832,"ARG_OF_PERICENTER":37.9714,"MEAN_ANOMALY":334.3644,"EPHEMERIS_TYPE":0,"CLASSIFICATION_TYPE":"U","NORAD_CAT_ID":1512,"ELEMENT_SET_NO":999,"REV_AT_EPOCH":95303,"BSTAR":3.0351e-5,"MEAN_MOTION_DOT":2.4e-7,"MEAN_MOTION_DDOT":0},{"OBJECT_NAME":"CALSPHERE 4A","OBJECT_ID":"1965-065H","EPOCH":"2026-04-25T10:37:50.752992","MEAN_MOTION":13.36268073,"ECCENTRICITY":0.0067707,"INCLINATION":89.8964,"RA_OF_ASC_NODE":123.0138,"ARG_OF_PERICENTER":251.9161,"MEAN_ANOMALY":207.9384,"EPHEMERIS_TYPE":0,"CLASSIFICATION_TYPE":"U","NORAD_CAT_ID":1520,"ELEMENT_SET_NO":999,"REV_AT_EPOCH":95566,"BSTAR":0.00020739,"MEAN_MOTION_DOT":1.17e-6,"MEAN_MOTION_DDOT":0},{"OBJECT_NAME":"OPS 5712 (P/L 160)","OBJECT_ID":"1967-053A","EPOCH":"2026-04-25T20:17:33.136224","MEAN_MOTION":14.76992325,"ECCENTRICITY":0.0002086,"INCLINATION":69.9165,"RA_OF_ASC_NODE":166.5102,"ARG_OF_PERICENTER":241.3867,"MEAN_ANOMALY":118.7071,"EPHEMERIS_TYPE":0,"CLASSIFICATION_TYPE":"U","NORAD_CAT_ID":2826,"ELEMENT_SET_NO":999,"REV_AT_EPOCH":5850,"BSTAR":0.0010059,"MEAN_MOTION_DOT":7.029e-5,"MEAN_MOTION_DDOT":0},{"OBJECT_NAME":"OPS 5712 (P/L 153)","OBJECT_ID":"1967-053H","EPOCH":"2026-04-25T16:55:30.073152","MEAN_MOTION":13.96820442,"ECCENTRICITY":0.001006,"INCLINATION":69.9744,"RA_OF_ASC_NODE":227.794,"ARG_OF_PERICENTER":265.2105,"MEAN_ANOMALY":94.7852,"EPHEMERIS_TYPE":0,"CLASSIFICATION_TYPE":"U","NORAD_CAT_ID":2874,"ELEMENT_SET_NO":999,"REV_AT_EPOCH":99945,"BSTAR":3.7063e-5,"MEAN_MOTION_DOT":-2.0e-8,"MEAN_MOTION_DDOT":0},{"OBJECT_NAME":"RIGIDSPHERE 2 (LCS 4)","OBJECT_ID":"1971-067E","EPOCH":"2026-04-25T18:54:54.787104","MEAN_MOTION":14.3780901,"ECCENTRICITY":0.0061784,"INCLINATION":87.6252,"RA_OF_ASC_NODE":353.3619,"ARG_OF_PERICENTER":48.1413,"MEAN_ANOMALY":312.5035,"EPHEMERIS_TYPE":0,"CLASSIFICATION_TYPE":"U","NORAD_CAT_ID":5398,"ELEMENT_SET_NO":999,"REV_AT_EPOCH":86635,"BSTAR":0.00021222,"MEAN_MOTION_DOT":6.72e-6,"MEAN_MOTION_DDOT":0},{"OBJECT_NAME":"COSMOS 2493 (SKRL-756 1)","OBJECT_ID":"2013-078A","EPOCH":"2026-04-25T18:56:34.725120","MEAN_MOTION":15.01871644,"ECCENTRICITY":0.0014394,"INCLINATION":82.4111,"RA_OF_ASC_NODE":312.447,"ARG_OF_PERICENTER":64.8128,"MEAN_ANOMALY":295.4588,"EPHEMERIS_TYPE":0,"CLASSIFICATION_TYPE":"U","NORAD_CAT_ID":39490,"ELEMENT_SET_NO":999,"REV_AT_EPOCH":67009,"BSTAR":0.00017377,"MEAN_MOTION_DOT":2.3e-5,"MEAN_MOTION_DDOT":0},{"OBJECT_NAME":"COSMOS 2494 (SKRL-756 2)","OBJECT_ID":"2013-078B","EPOCH":"2026-04-25T19:32:24.211104","MEAN_MOTION":15.04541856,"ECCENTRICITY":0.0016563,"INCLINATION":82.4104,"RA_OF_ASC_NODE":302.0279,"ARG_OF_PERICENTER":27.2826,"MEAN_ANOMALY":332.9266,"EPHEMERIS_TYPE":0,"CLASSIFICATION_TYPE":"U","NORAD_CAT_ID":39491,"ELEMENT_SET_NO":999,"REV_AT_EPOCH":67093,"BSTAR":0.0002428,"MEAN_MOTION_DOT":3.439e-5,"MEAN_MOTION_DDOT":0}]
