CALSPHERE 1             
1 00900U 64063C   26115.82535888  .00000638  00000+0  63983-3 0  9998
2 00900  90.2214  70.5377 0028347  89.2942 302.6497 13.76559824 64221
CALSPHERE 2             
1 00902U 64063E   26115.88918014  .00000082  00000+0  11069-3 0  9993
2 00902  90.2342  74.5393 0019469  25.0680  33.4619 13.52896128849196
LCS 1                   
1 01361U 65034C   26115.76422963  .00000020  00000+0  15325-2 0  9992
2 01361  32.1440 301.5005 0013223 295.5609  64.3521  9.89310186204695
TEMPSAT 1               
1 01512U 65065E   26115.53137955  .00000024  00000+0  30351-4 0  9995
2 01512  90.0009 212.5832 0070684  37.9714 334.3644 13.33591523953030
CALSPHERE 4A            
1 01520U 65065H   26115.44294853  .00000117  00000+0  20739-3 0  9996
2 01520  89.8964 123.0138 0067707 251.9161 207.9384 13.36268073955667
OPS 5712 (P/L 160)      
1 02826U 67053A   26115.84552241  .00007029  00000+0  10059-2 0  9999
2 02826  69.9165 166.5102 0002086 241.3867 118.7071 14.76992325 58505
OPS 5712 (P/L 153)      
1 02874U 67053H   26115.70520918 -.00000002  00000+0  37063-4 0  9994
2 02874  69.9744 227.7940 0010060 265.2105  94.7852 13.96820442999451
RIGIDSPHERE 2 (LCS 4)   
1 05398U 71067E   26115.78813411  .00000672  00000+0  21222-3 0  9990
2 05398  87.6252 353.3619 0061784  48.1413 312.5035 14.37809010866354
COSMOS 2493 (SKRL-756 1)
1 39490U 13078A   26115.78929080  .00002300  00000+0  17377-3 0  9994
2 39490  82.4111 312.4470 0014394  64.8128 295.4588 15.01871644670095
COSMOS 2494 (SKRL-756 2)
1 39491U 13078B   26115.81416911  .00003439  00000+0  24280-3 0  9998
2 39491  82.4104 302.0279 0016563  27.2826 332.9266 15.04541856670933
